      2.10          N: GNSS NAV DATA                        RINEX VERSION / TYPE
fic2rin                                 10/02/2020 00:17:36 PGM / RUN BY / DATE
                                                            END OF HEADER
11 20 10  1 19 59 44.0-1.488085836172e-04 1.057287590811e-11 0.000000000000e+00
    5.300000000000e+01 3.968750000000e+01 5.392010313158e-09-6.231897087528e-01
    1.870095729828e-06 1.585613109637e-02 1.129321753979e-05 5.153723651886e+03
    4.175840000000e+05-2.719461917877e-07 3.358834981873e-01-4.097819328308e-08
    9.137964863315e-01 1.419687500000e+02 2.051634907606e+00-8.637859801532e-09
    4.393040130612e-10 1.000000000000e+00 2.125000000000e+03 0.000000000000e+00
    2.400000000000e+00 0.000000000000e+00-1.210719347000e-08 5.300000000000e+01
    4.104000000000e+05 4.000000000000e+00
 1 20 10  1 20  0  0.0 3.475788980722e-05-1.364242052659e-12 0.000000000000e+00
    3.400000000000e+01 7.550000000000e+01 4.170173704473e-09-8.223071593653e-02
    4.015862941742e-06 1.008543081116e-02 8.059665560722e-06 5.153697851181e+03
    4.176000000000e+05 7.078051567078e-08 8.185219539249e-01 1.825392246246e-07
    9.816252331340e-01 2.394687500000e+02 8.289065261868e-01-8.073907739237e-09
    5.710952169795e-10 1.000000000000e+00 2.125000000000e+03 0.000000000000e+00
    2.400000000000e+00 0.000000000000e+00 5.122274160385e-09 3.400000000000e+01
    4.104000000000e+05 4.000000000000e+00
 2 20 10  1 20  0  0.0-5.239727906883e-04-5.002220859751e-12 0.000000000000e+00
    7.300000000000e+01 7.215625000000e+01 4.597691512306e-09 1.394109303163e-01
    3.639608621597e-06 1.985372311901e-02 9.071081876755e-06 5.153788726807e+03
    4.176000000000e+05-3.166496753693e-07 7.396351980777e-01-4.842877388000e-08
    9.605800110989e-01 2.075937500000e+02-1.600768248617e+00-8.457852303497e-09
    5.232360805973e-10 1.000000000000e+00 2.125000000000e+03 0.000000000000e+00
    2.400000000000e+00 0.000000000000e+00-1.769512891769e-08 7.300000000000e+01
    4.104000000000e+05 4.000000000000e+00
 5 20 10  1 20  0  0.0-2.239411696792e-05-9.094947017729e-13 0.000000000000e+00
    7.200000000000e+01-3.121875000000e+01 5.220931758478e-09 2.808514948892e+00
   -1.670792698860e-06 6.107710883953e-03 3.235414624214e-06 5.153736255646e+03
    4.176000000000e+05-2.421438694000e-08 1.824847467490e+00-7.078051567078e-08
    9.534152132734e-01 3.154687500000e+02 8.796394894298e-01-8.463566827245e-09
   -1.267909956396e-10 1.000000000000e+00 2.125000000000e+03 0.000000000000e+00
    2.400000000000e+00 0.000000000000e+00-1.117587089539e-08 7.200000000000e+01
    4.104000000000e+05 4.000000000000e+00
 3 20 10  1 20  0  0.0-3.146082162857e-04-1.045918907039e-11 0.000000000000e+00
    7.100000000000e+01-3.656250000000e+01 4.940562937134e-09-1.251839827994e+00
   -1.771375536919e-06 3.244816907682e-03 3.552064299583e-06 5.153731512070e+03
    4.176000000000e+05 2.793967723846e-08 1.858497466725e+00 1.676380634308e-08
    9.665076117901e-01 3.146250000000e+02 8.822193220559e-01-8.402850012431e-09
   -1.192906832215e-10 1.000000000000e+00 2.125000000000e+03 0.000000000000e+00
    2.400000000000e+00 0.000000000000e+00 1.862645149231e-09 7.100000000000e+01
    4.104000000000e+05 4.000000000000e+00
 6 20 10  1 20  0  0.0-3.301762044430e-04-2.842170943040e-12 0.000000000000e+00
    4.800000000000e+01 7.781250000000e+01 4.077312693582e-09 3.000641011600e-01
    3.987923264503e-06 1.814019517042e-03 8.275732398033e-06 5.153624738693e+03
    4.176000000000e+05 5.587935447693e-09 8.102729304571e-01-2.793967723846e-08
    9.811582214068e-01 2.258750000000e+02-1.138153399240e+00-7.949974005471e-09
    5.907388923603e-10 1.000000000000e+00 2.125000000000e+03 0.000000000000e+00
    2.400000000000e+00 0.000000000000e+00 4.190951585770e-09 4.800000000000e+01
    4.104000000000e+05 4.000000000000e+00
 4 20 10  1 20  0  0.0-1.408196985722e-04-3.979039320257e-12 0.000000000000e+00
    1.010000000000e+02-3.590625000000e+01 4.433398954576e-09 1.443465831654e+00
   -1.769512891769e-06 8.391776354983e-04 1.192092895508e-05 5.153635395050e+03
    4.176000000000e+05 9.126961231232e-08 2.938082153612e+00 2.235174179077e-08
    9.606183966063e-01 1.494062500000e+02-2.915890594822e+00-7.972117784991e-09
   -2.503675716715e-10 1.000000000000e+00 2.125000000000e+03 0.000000000000e+00
    2.400000000000e+00 0.000000000000e+00-4.190951585770e-09 8.690000000000e+02
    4.104000000000e+05 4.000000000000e+00
23 20 10  1 20  0  0.0 7.790746167302e-05 7.275957614183e-12 0.000000000000e+00
    4.000000000000e+00-3.128125000000e+01 4.978778814693e-09 5.974805546633e-02
   -1.635402441025e-06 1.045226468705e-03 3.371387720108e-06 5.153614532471e+03
    4.176000000000e+05 1.676380634308e-08 1.833289676605e+00 1.862645149231e-08
    9.613464821569e-01 3.146562500000e+02 1.938182384825e+00-8.459638092168e-09
   -1.067901625246e-10 1.000000000000e+00 2.125000000000e+03 0.000000000000e+00
    2.400000000000e+00 0.000000000000e+00-8.381903171539e-09 4.000000000000e+00
    4.104000000000e+05 4.000000000000e+00
16 20 10  1 20  0  0.0-2.166251651943e-04-5.115907697473e-12 0.000000000000e+00
    2.500000000000e+01-4.984375000000e+01 4.394111603814e-09 2.968882569830e+00
   -2.691522240639e-06 1.158430497162e-02 3.943219780922e-06 5.153575746536e+03
    4.176000000000e+05-5.029141902924e-08-1.193672770039e+00-1.285225152969e-07
    9.764854781968e-01 3.123125000000e+02 6.285251801852e-01-8.028548706994e-09
   -3.375140588153e-10 1.000000000000e+00 2.125000000000e+03 0.000000000000e+00
    2.400000000000e+00 0.000000000000e+00-1.071020960808e-08 2.500000000000e+01
    4.104000000000e+05 4.000000000000e+00
10 20 10  1 20  0  0.0-4.689521156251e-04-9.663381206337e-12 0.000000000000e+00
    3.900000000000e+01-3.618750000000e+01 4.824843831255e-09-2.077923792724e+00
   -2.017244696617e-06 5.953714251518e-03 3.632158041000e-06 5.153664201736e+03
    4.176000000000e+05 9.499490261078e-08 1.855509427290e+00-8.568167686462e-08
    9.664296104610e-01 3.125625000000e+02-2.662740636533e+00-8.326418257313e-09
   -6.785996949726e-11 1.000000000000e+00 2.125000000000e+03 0.000000000000e+00
    2.400000000000e+00 0.000000000000e+00 2.328306436539e-09 3.900000000000e+01
    4.104000000000e+05 4.000000000000e+00
15 20 10  1 20  0  0.0-1.998636871576e-04 2.614797267597e-12 0.000000000000e+00
    2.200000000000e+01-6.465625000000e+01 5.269862368063e-09 1.200095922527e+00
   -3.129243850708e-06 1.284928666428e-02 1.134537160397e-05 5.153764015198e+03
    4.176000000000e+05-2.067536115646e-07 2.796418152441e+00 8.754432201385e-08
    9.288751296861e-01 1.488125000000e+02 9.266291071703e-01-8.522140695653e-09
   -4.421612749348e-10 1.000000000000e+00 2.125000000000e+03 0.000000000000e+00
    2.400000000000e+00 0.000000000000e+00-1.071020960808e-08 2.200000000000e+01
    4.104000000000e+05 4.000000000000e+00
13 20 10  1 20  0  0.0 5.059456452727e-05 3.637978807092e-12 0.000000000000e+00
    2.200000000000e+01-3.059375000000e+01 4.176245385955e-09 1.433946484735e+00
   -1.516193151474e-06 4.588885232806e-03 1.267530024052e-05 5.153701959610e+03
    4.176000000000e+05-1.303851604462e-07 3.033979222030e+00 1.490116119385e-08
    9.684545728888e-01 1.395000000000e+02 1.047818279529e+00-7.844255316149e-09
   -1.678641350722e-10 1.000000000000e+00 2.125000000000e+03 0.000000000000e+00
    2.400000000000e+00 0.000000000000e+00-1.117587089539e-08 2.200000000000e+01
    4.104000000000e+05 4.000000000000e+00
 9 20 10  1 20  0  0.0-2.941470593214e-04-5.456968210638e-12 0.000000000000e+00
    5.400000000000e+01-4.187500000000e+01 4.515188075707e-09 2.514610998270e+00
   -2.156943082809e-06 1.828004606068e-03 1.205503940582e-05 5.153656026840e+03
    4.176000000000e+05 5.029141902924e-08 2.889184590798e+00-8.568167686462e-08
    9.533603772521e-01 1.397187500000e+02 1.758733562038e+00-8.002833350132e-09
   -3.253706958526e-10 1.000000000000e+00 2.125000000000e+03 0.000000000000e+00
    2.400000000000e+00 0.000000000000e+00 1.396983861923e-09 5.400000000000e+01
    4.104000000000e+05 4.000000000000e+00
 8 20 10  1 20  0  0.0-4.996685311198e-05-1.364242052659e-12 0.000000000000e+00
    9.100000000000e+01-4.100000000000e+01 4.016953036503e-09 2.227885675901e+00
   -2.115964889526e-06 5.524450214580e-03 1.145526766777e-05 5.153732149124e+03
    4.176000000000e+05-1.303851604462e-08-2.522253413979e-01 7.636845111847e-08
    9.693136481242e-01 1.632500000000e+02-6.730087183145e-02-7.745322623776e-09
   -2.857261873569e-10 1.000000000000e+00 2.125000000000e+03 0.000000000000e+00
    2.400000000000e+00 0.000000000000e+00 5.122274160385e-09 9.100000000000e+01
    4.104000000000e+05 4.000000000000e+00
29 20 10  1 20  0  0.0-2.066204324365e-04-8.071765478235e-12 0.000000000000e+00
    7.700000000000e+01-3.943750000000e+01 3.607293115380e-09 2.150278192175e+00
   -1.916661858559e-06 1.576166716404e-03 1.177936792374e-05 5.153745151520e+03
    4.176000000000e+05-5.401670932770e-08-1.657819114706e-01 7.078051567078e-08
    9.855498356494e-01 1.653750000000e+02 2.247031901532e+00-7.492097790231e-09
   -1.632210845276e-10 1.000000000000e+00 2.125000000000e+03 0.000000000000e+00
    3.400000000000e+00 0.000000000000e+00-1.024454832077e-08 7.700000000000e+01
    4.104000000000e+05 4.000000000000e+00
31 20 10  1 20  0  0.0-7.223524153233e-05-2.387423592154e-12 0.000000000000e+00
    3.900000000000e+01 7.718750000000e+01 4.691266838666e-09-1.105723502942e+00
    3.978610038757e-06 9.711035410874e-03 7.294118404388e-06 5.153666004181e+03
    4.176000000000e+05 9.126961231232e-08-2.304865860355e+00-1.471489667892e-07
    9.570913713373e-01 2.373437500000e+02 1.665874921806e-01-8.194269895661e-09
    4.128743407307e-10 1.000000000000e+00 2.125000000000e+03 0.000000000000e+00
    2.400000000000e+00 0.000000000000e+00-1.303851604462e-08 3.900000000000e+01
    4.104000000000e+05 4.000000000000e+00
